[{"OBJECT_NAME":"STARLINK-33756","OBJECT_ID":"2025-069AB","EPOCH":"2026-03-09T12:12:37.083456","MEAN_MOTION":15.30184322,"ECCENTRICITY":0.00011756,"INCLINATION":53.1579,"RA_OF_ASC_NODE":143.5376,"ARG_OF_PERICENTER":70.0598,"MEAN_ANOMALY":290.053,"EPHEMERIS_TYPE":0,"CLASSIFICATION_TYPE":"U","NORAD_CAT_ID":63458,"ELEMENT_SET_NO":999,"REV_AT_EPOCH":5337,"BSTAR":0.00091304377,"MEAN_MOTION_DOT":0.00026767,"MEAN_MOTION_DDOT":0},{"OBJECT_NAME":"CZ-6A DEB","OBJECT_ID":"2024-140RA","EPOCH":"2026-03-09T01:51:18.259488","MEAN_MOTION":15.31763252,"ECCENTRICITY":0.00411794,"INCLINATION":89.1856,"RA_OF_ASC_NODE":296.0787,"ARG_OF_PERICENTER":96.6516,"MEAN_ANOMALY":263.9425,"EPHEMERIS_TYPE":0,"CLASSIFICATION_TYPE":"U","NORAD_CAT_ID":61156,"ELEMENT_SET_NO":999,"REV_AT_EPOCH":8391,"BSTAR":0.0079173326,"MEAN_MOTION_DOT":0.00256788,"MEAN_MOTION_DDOT":0}]
